STARLINK-5986           
1 56452U 23064E   26068.63086536  .00000127  00000+0  18456-4 0  9993
2 56452  70.0005 144.7536 0003076 269.7649  90.3157 14.98329662155236
HAWK-9B                 
1 59450U 24066J   26068.43130858  .00002608  00000+0  23214-3 0  9995
2 59450  45.6215  73.5456 0003751 229.3903 130.6652 14.98778240104864
